[{"OBJECT_NAME":"STARLINK-32254","OBJECT_ID":"2024-144C","EPOCH":"2026-03-09T17:30:39.021120","MEAN_MOTION":15.30184967,"ECCENTRICITY":0.00014257,"INCLINATION":53.1601,"RA_OF_ASC_NODE":217.064,"ARG_OF_PERICENTER":84.7865,"MEAN_ANOMALY":275.3299,"EPHEMERIS_TYPE":0,"CLASSIFICATION_TYPE":"U","NORAD_CAT_ID":60427,"ELEMENT_SET_NO":999,"REV_AT_EPOCH":8935,"BSTAR":4.25595e-7,"MEAN_MOTION_DOT":-3.47e-6,"MEAN_MOTION_DDOT":0},{"OBJECT_NAME":"CZ-2C R\/B","OBJECT_ID":"2024-203E","EPOCH":"2026-03-09T21:58:29.775360","MEAN_MOTION":15.29569733,"ECCENTRICITY":0.00782655,"INCLINATION":97.3142,"RA_OF_ASC_NODE":134.7565,"ARG_OF_PERICENTER":232.0261,"MEAN_ANOMALY":127.3893,"EPHEMERIS_TYPE":0,"CLASSIFICATION_TYPE":"U","NORAD_CAT_ID":61873,"ELEMENT_SET_NO":999,"REV_AT_EPOCH":7395,"BSTAR":0.00041889655,"MEAN_MOTION_DOT":0.00013106,"MEAN_MOTION_DDOT":0}]
